        "tle_line1": '1 37387U 11015A   26103.89999973 -.00000252  00000+0 -94795-4 0  9999',
        "tle_line2": '2 37387  98.7689 171.7738 0012401  84.9704 275.2889 14.21615505777047',
        "epoch_iso": '2026-04-13T21:35:59.976672Z',
        "inclination_deg": '98.768900',
        "eccentricity": '0.00124010',
        "mean_motion_rev_per_day": '14.21615505',
        "altitude_m": '819894.458',
    },
    {
        "name": 'HAIYANG-2A',
        "norad_catalog_id": '37781',
        "tle_line1": '1 37781U 11043A   26103.94537780 -.00000169  00000+0 -12810-3 0  9992',
        "tle_line2": '2 37781  99.3420 107.9446 0004304 213.2884 146.7996 13.76556306737826',
        "epoch_iso": '2026-04-13T22:41:20.641920Z',
        "inclination_deg": '99.342000',
        "eccentricity": '0.00043040',
        "mean_motion_rev_per_day": '13.76556306',
        "altitude_m": '976126.524',
    },
    {
        "name": 'RASAT',
        "norad_catalog_id": '37791',
        "tle_line1": '1 37791U 11044D   26103.99718589  .00000385  00000+0  75233-4 0  9994',
        "tle_line2": '2 37791  98.0543 196.3851 0021516  38.9778 135.0072 14.68107157783767',
        "epoch_iso": '2026-04-13T23:55:56.860896Z',
        "inclination_deg": '98.054300',
        "eccentricity": '0.00215160',
        "mean_motion_rev_per_day": '14.68107157',
        "altitude_m": '667117.253',
    },
    {
        "name": 'SRMSAT',
        "norad_catalog_id": '37841',
        "tle_line1": '1 37841U 11058D   26103.62860019  .00000366  00000+0  54606-4 0  9991',
        "tle_line2": '2 37841  19.9715  90.2239 0011664 212.7502 304.3821 14.11560064748681',
        "epoch_iso": '2026-04-13T15:05:11.056416Z',
        "inclination_deg": '19.971500',
        "eccentricity": '0.00116640',
        "mean_motion_rev_per_day": '14.11560064',
        "altitude_m": '854038.107',
    },
    {
        "name": 'PLEIADES 1A',
        "norad_catalog_id": '38012',
        "tle_line1": '1 38012U 11076F   26103.92452051  .00000031  00000+0  16420-4 0  9999',
        "tle_line2": '2 38012  98.1996 179.8836 0001241  74.0617  41.3226 14.58569444762624',
        "epoch_iso": '2026-04-13T22:11:18.572064Z',
        "inclination_deg": '98.199600',
        "eccentricity": '0.00012410',
        "mean_motion_rev_per_day": '14.58569444',
        "altitude_m": '697796.899',
    },
    {
        "name": 'ZIYUAN 1-02C (ZY 1-02C)',
        "norad_catalog_id": '38038',
        "tle_line1": '1 38038U 11079A   26103.99821456  .00000176  00000+0  72099-4 0  9990',
        "tle_line2": '2 38038  98.4114 172.6384 0007359 132.7085 282.0682 14.38160980749987',
        "epoch_iso": '2026-04-13T23:57:25.737984Z',
        "inclination_deg": '98.411400',
        "eccentricity": '0.00073590',
        "mean_motion_rev_per_day": '14.38160980',
        "altitude_m": '764581.048',
    },
    {
        "name": 'ARIRANG-3 (KOMPSAT-3)',
        "norad_catalog_id": '38338',
        "tle_line1": '1 38338U 12025B   26103.91194237  .00000289  00000+0  66684-4 0  9995',
        "tle_line2": '2 38338  98.1119  62.5048 0004613 330.0275  30.0662 14.62149170741953',
        "epoch_iso": '2026-04-13T21:53:11.820768Z',
        "inclination_deg": '98.111900',
        "eccentricity": '0.00046130',
        "mean_motion_rev_per_day": '14.62149170',
        "altitude_m": '686243.015',
    },
    {
        "name": 'EXACTVIEW-1 (ADS-1B)',
        "norad_catalog_id": '38709',
        "tle_line1": '1 38709U 12039C   26103.57174958  .00000063  00000+0  46695-4 0  9992',
        "tle_line2": '2 38709  98.9680 219.5315 0010784   3.5338 356.5915 14.24965144713507',
        "epoch_iso": '2026-04-13T13:43:19.163712Z',
        "inclination_deg": '98.968000',
        "eccentricity": '0.00107840',
        "mean_motion_rev_per_day": '14.24965144',
        "altitude_m": '808609.848',
    },
    {
        "name": 'SPOT 6',
        "norad_catalog_id": '38755',
        "tle_line1": '1 38755U 12047A   26103.91749117  .00000053  00000+0  21261-4 0  9996',
        "tle_line2": '2 38755  98.2161 171.9661 0001299  83.6582 276.4765 14.58587911723683',
        "epoch_iso": '2026-04-13T22:01:11.237088Z',
        "inclination_deg": '98.216100',
        "eccentricity": '0.00012990',
        "mean_motion_rev_per_day": '14.58587911',
        "altitude_m": '697737.174',
    },
    {
        "name": 'PLEIADES 1B',
        "norad_catalog_id": '39019',
        "tle_line1": '1 39019U 12068A   26103.93709536  .00000156  00000+0  43477-4 0  9993',
        "tle_line2": '2 39019  98.1967 179.8664 0001151  77.9509 282.1820 14.58557094711482',
        "epoch_iso": '2026-04-13T22:29:25.039104Z',
        "inclination_deg": '98.196700',
        "eccentricity": '0.00011510',
        "mean_motion_rev_per_day": '14.58557094',
        "altitude_m": '697836.841',
    },
    {
        "name": 'GOKTURK 2',
        "norad_catalog_id": '39030',
        "tle_line1": '1 39030U 12073A   26103.92825631  .00000896  00000+0  13865-3 0  9994',
        "tle_line2": '2 39030  97.6871 304.5673 0001503 109.6037 250.5335 14.75483065715030',
        "epoch_iso": '2026-04-13T22:16:41.345184Z',
        "inclination_deg": '97.687100',
        "eccentricity": '0.00015030',
        "mean_motion_rev_per_day": '14.75483065',
        "altitude_m": '643618.264',
    },
    {
        "name": 'LANDSAT 8',
        "norad_catalog_id": '39084',
        "tle_line1": '1 39084U 13008A   26103.95632536  .00000202  00000+0  54735-4 0  9998',
        "tle_line2": '2 39084  98.1863 175.0919 0001171  93.9204 266.2128 14.57117273688546',
        "epoch_iso": '2026-04-13T22:57:06.511104Z',
        "inclination_deg": '98.186300',
        "eccentricity": '0.00011710',
        "mean_motion_rev_per_day": '14.57117273',
        "altitude_m": '702497.394',
    },
    {
        "name": 'SARAL',
        "norad_catalog_id": '39086',
        "tle_line1": '1 39086U 13009A   26103.93598470  .00000058  00000+0  37434-4 0  9993',
        "tle_line2": '2 39086  98.5566 291.3131 0002945 105.5428 254.6081 14.32840222686400',
        "epoch_iso": '2026-04-13T22:27:49.078080Z',
        "inclination_deg": '98.556600',
        "eccentricity": '0.00029450',
        "mean_motion_rev_per_day": '14.32840222',
        "altitude_m": '782252.798',
    },
    {
        "name": 'GAOFEN-1',
        "norad_catalog_id": '39150',
        "tle_line1": '1 39150U 13018A   26103.95510082  .00000136  00000+0  26743-4 0  9998',
        "tle_line2": '2 39150  97.9125 177.3184 0018541 111.2643 249.0549 14.76540554698761',
        "epoch_iso": '2026-04-13T22:55:20.710848Z',
        "inclination_deg": '97.912500',
        "eccentricity": '0.00185410',
        "mean_motion_rev_per_day": '14.76540554',
        "altitude_m": '640265.239',
    },
    {
        "name": 'VNREDSAT 1',
        "norad_catalog_id": '39160',
        "tle_line1": '1 39160U 13021B   26103.94933816  .00000382  00000+0  79961-4 0  9999',
        "tle_line2": '2 39160  97.9149 159.8107 0001299  83.9321 276.2031 14.64941215690887',
        "epoch_iso": '2026-04-13T22:47:02.817024Z',
        "inclination_deg": '97.914900',
        "eccentricity": '0.00012990',
        "mean_motion_rev_per_day": '14.64941215',
        "altitude_m": '677264.117',
    },
    {
        "name": 'ARIRANG-5 (KOMPSAT-5)',
        "norad_catalog_id": '39227',
        "tle_line1": '1 39227U 13042A   26104.05190538  .00001066  00000+0  80571-4 0  9994',
        "tle_line2": '2 39227  97.6218 291.6483 0003659  23.4979 336.6414 15.04476485694211',
        "epoch_iso": '2026-04-14T01:14:44.624832Z',
        "inclination_deg": '97.621800',
        "eccentricity": '0.00036590',
        "mean_motion_rev_per_day": '15.04476485',
        "altitude_m": '553113.135',
    },
    {
        "name": 'SKYSAT-A',
        "norad_catalog_id": '39418',
        "tle_line1": '1 39418U 13066C   26103.89800586  .00001935  00000+0  11389-3 0  9999',
        "tle_line2": '2 39418  97.3884 155.3394 0021902 172.5671 187.5889 15.12606827678767',
        "epoch_iso": '2026-04-13T21:33:07.706304Z',
        "inclination_deg": '97.388400',
        "eccentricity": '0.00219020',
        "mean_motion_rev_per_day": '15.12606827',
        "altitude_m": '528253.606',
    },
    {
        "name": 'DUBAISAT-2',
        "norad_catalog_id": '39419',
        "tle_line1": '1 39419U 13066D   26103.92158973  .00003218  00000+0  20325-3 0  9996',
        "tle_line2": '2 39419  97.4550  95.7808 0009578 252.0512 107.9673 15.09720741676694',
        "epoch_iso": '2026-04-13T22:07:05.352672Z',
        "inclination_deg": '97.455000',
        "eccentricity": '0.00095780',
        "mean_motion_rev_per_day": '15.09720741',
        "altitude_m": '537052.625',
    },
    {
        "name": 'GPM-CORE',
        "norad_catalog_id": '39574',
        "tle_line1": '1 39574U 14009C   26103.92839918  .00006345  00000+0  14106-3 0  9995',
        "tle_line2": '2 39574  64.9724 163.4392 0012564 257.7283 102.2451 15.44526447687886',
        "epoch_iso": '2026-04-13T22:16:53.689152Z',
        "inclination_deg": '64.972400',
        "eccentricity": '0.00125640',
        "mean_motion_rev_per_day": '15.44526447',
        "altitude_m": '432769.869',
    },
    {
        "name": 'SENTINEL-1A',
        "norad_catalog_id": '39634',
        "tle_line1": '1 39634U 14016A   26103.97894995 -.00000059  00000+0 -27220-5 0  9992',
        "tle_line2": '2 39634  98.1811 112.4434 0001399  85.9005 274.2355 14.59198424640659',
        "epoch_iso": '2026-04-13T23:29:41.275680Z',
        "inclination_deg": '98.181100',
        "eccentricity": '0.00013990',
        "mean_motion_rev_per_day": '14.59198424',
        "altitude_m": '695763.389',
    },
    {
        "name": 'KAZEOSAT 1',
        "norad_catalog_id": '39731',
        "tle_line1": '1 39731U 14024A   26103.90970348  .00000015  00000+0  17460-4 0  9993',
        "tle_line2": '2 39731  98.3233 177.9474 0001270 102.4083 257.7249 14.42054080629292',
        "epoch_iso": '2026-04-13T21:49:58.380672Z',
        "inclination_deg": '98.323300',
